{
    "links": {
        "self": "http://www.neowsapp.com/rest/v1/neo/3843343?api_key=iIulBulltgU6a56xZRHN4H3l9WmuAYTsLGpBGhQ2"
    },
    "id": "3843343",
    "neo_reference_id": "3843343",
    "name": "(2019 OQ)",
    "designation": "2019 OQ",
    "nasa_jpl_url": "http://ssd.jpl.nasa.gov/sbdb.cgi?sstr=3843343",
    "absolute_magnitude_h": 23.9,
    "estimated_diameter": {
        "kilometers": {
            "estimated_diameter_min": 0.04411182,
            "estimated_diameter_max": 0.0986370281
        },
        "meters": {
            "estimated_diameter_min": 44.1118199997,
            "estimated_diameter_max": 98.6370281305
        },
        "miles": {
            "estimated_diameter_min": 0.0274098057,
            "estimated_diameter_max": 0.0612901888
        },
        "feet": {
            "estimated_diameter_min": 144.7238235278,
            "estimated_diameter_max": 323.6123073718
        }
    },
    "is_potentially_hazardous_asteroid": false,
    "close_approach_data": [
        {
            "close_approach_date": "2019-07-15",
            "close_approach_date_full": "2019-Jul-15 07:13",
            "epoch_date_close_approach": 1563174780000,
            "relative_velocity": {
                "kilometers_per_second": "9.1270473191",
                "kilometers_per_hour": "32857.3703488659",
                "miles_per_hour": "20416.2921481606"
            },
            "miss_distance": {
                "astronomical": "0.0536950566",
                "lunar": "20.8873770174",
                "kilometers": "8032666.096889442",
                "miles": "4991267.2644686196"
            },
            "orbiting_body": "Earth"
        }
    ],
    "orbital_data": {
        "orbit_id": "1",
        "orbit_determination_date": "2019-07-25 15:12:02",
        "first_observation_date": "2019-07-24",
        "last_observation_date": "2019-07-25",
        "data_arc_in_days": 1,
        "observations_used": 29,
        "orbit_uncertainty": "9",
        "minimum_orbit_intersection": ".00358177",
        "jupiter_tisserand_invariant": "4.468",
        "epoch_osculation": "2458689.5",
        "eccentricity": ".3355861010323593",
        "semi_major_axis": "1.497804181600484",
        "inclination": "10.48733888605297",
        "ascending_node_longitude": "285.1578580391762",
        "orbital_period": "669.5468712573446",
        "perihelion_distance": ".9951619161872139",
        "perihelion_argument": "334.1736321381477",
        "aphelion_distance": "2.000446447013755",
        "perihelion_time": "2458652.830142260583",
        "mean_anomaly": "19.71654166854612",
        "mean_motion": ".5376770700518019",
        "equinox": "J2000",
        "orbit_class": {
            "orbit_class_type": "APO",
            "orbit_class_description": "Near-Earth asteroid orbits which cross the Earth’s orbit similar to that of 1862 Apollo",
            "orbit_class_range": "a (semi-major axis) > 1.0 AU; q (perihelion) < 1.017 AU"
        }
    },
    "is_sentry_object": false
}